NIMIQ 2                 
1 27632U 02062A   26177.64410111 -.00000067  00000+0  00000+0 0  9993
2 27632   9.4671  56.7999 0005795  33.3539 307.3033  1.00272427 44277
USA 167                 
1 27691U 03008A   26178.24650981  .00000005  00000+0  00000+0 0  9998
2 27691  10.9807  43.3191 0003856 320.2261 238.8681  1.00272936  6878
USA 169 (MILSTAR-2 4)   
1 27711U 03012A   26177.90959286 -.00000265  00000+0  00000+0 0  9997
2 27711  12.3638  29.7628 0100729   9.7337 355.1429  1.00272560 33058
ASIASAT 4               
1 27718U 03014A   26177.83150310 -.00000215  00000+0  00000+0 0  9994
2 27718   4.7280  75.6276 0002823  24.2749 261.9342  1.00270817 45398
HELLAS-SAT 2            
1 27811U 03020A   26177.94878351 -.00000080  00000+0  00000+0 0  9999
2 27811   7.3784  67.7695 0003124  43.0189 135.8083  1.00272426 42946
THURAYA-2               
1 27825U 03026A   26178.17338253  .00000128  00000+0  00000+0 0  9990
2 27825   8.8548  31.9316 0002719  15.3626 334.4268  1.00273466 84443
OPTUS C1                
1 27831U 03028B   26177.80858413 -.00000146  00000+0  00000+0 0  9994
2 27831   6.9133  69.2956 0005822  21.6801 270.8059  1.00272354 53156
USA 170                 
1 27875U 03040A   26175.81680639  .00000125  00000+0  00000+0 0  9994
2 27875  10.5162  47.8771 0002120  60.7420 122.5828  1.00271103 33070
GALAXY 13 (HORIZONS-1)  
1 27954U 03044A   26178.29280814  .00000143  00000+0  00000+0 0  9992
2 27954   1.4447  83.7366 0001713   4.4004 142.6660  1.00269901 46672
YAMAL 202               
1 28089U 03053A   26177.59015431 -.00000076  00000+0  00000+0 0  9991
2 28089   6.3670  70.8248 0003140  14.2954 205.5801  1.00271061 82798
UFO 11 (USA 174)        
1 28117U 03057A   26177.68058025 -.00000102  00000+0  00000+0 0  9993
2 28117   8.9522  33.7799 0002347  71.1193 130.5155  1.00271668 82543
USA 176 (DSP 22)        
1 28158U 04004A   26177.40392447 -.00000296  00000+0  00000+0 0  9994
2 28158  12.0745  26.0034 0001190 323.7208  20.9389  1.00274016 33026
ABS-4 (MOBISAT-1)       
1 28184U 04007A   26177.79211218  .00000045  00000+0  00000+0 0  9995
2 28184   6.0663  71.8927 0005104  21.8157 167.3550  1.00267804 52433
INTELSAT 10-02          
1 28358U 04022A   26178.16445582  .00000000  00000+0  00000+0 0  9991
2 28358   0.0268 287.5242 0000178 181.8453 224.1091  1.00270753 80653
ANIK F2                 
1 28378U 04027A   26178.21395523 -.00000041  00000+0  00000+0 0  9999
2 28378   3.3128  79.3178 0004281  14.7578 147.1467  1.00272263 41366
AMC-15                  
1 28446U 04041A   26178.21516858 -.00000077  00000+0  00000+0 0  9996
2 28446   0.0217  33.3739 0002532  56.2098 158.1519  1.00272301 79402
NSS-10                  
1 28526U 05003A   26178.25292922 -.00000246  00000+0  00000+0 0  9999
2 28526   6.4741  70.3336 0003162  17.6230 241.0106  1.00272329 53255
INMARSAT 4-F1           
1 28628U 05009A   26177.91479291  .00000039  00000+0  00000+0 0  9995
2 28628   5.1801  42.7737 0002986  53.4440 326.2544  1.00272664 77770
DIRECTV 8               
1 28659U 05019A   26178.21239523  .00000013  00000+0  00000+0 0  9998
2 28659   0.0225  69.9345 0003304  29.8497 132.9535  1.00271752 77171
GALAXY 28 (G-28)        
1 28702U 05022A   26178.19971309 -.00000192  00000+0  00000+0 0  9992
2 28702   3.3235  78.8111 0002274  17.0371 224.2616  1.00270977 52077
THAICOM 4               
1 28786U 05028A   26178.04570682 -.00000351  00000+0  00000+0 0  9990
2 28786   0.2706  85.8028 0002007 358.8000 326.5193  1.00270992 52345
ANIK F1R                
1 28868U 05036A   26178.24251016 -.00000068  00000+0  00000+0 0  9994
2 28868   4.3379  76.4601 0004493   7.1420 171.7518  1.00272177 46555
SYRACUSE 3A             
1 28885U 05041B   26177.86017068  .00000136  00000+0  00000+0 0  9998
2 28885   4.6661  75.7197 0002801  14.6770 180.8826  1.00272197 75844
INMARSAT 4-F2           
1 28899U 05044A   26177.97915821 -.00000254  00000+0  00000+0 0  9994
2 28899   5.1075  43.6835 0003299  41.8800 325.5197  1.00271872 75629
METEOSAT-9 (MSG-2)      
1 28912U 05049B   26177.81720226  .00000126  00000+0  00000+0 0  9998
2 28912   9.3827  54.0739 0001988 356.9985 203.7944  1.00277622  7094
EUTELSAT 174A           
1 28924U 05052A   26178.05654021  .00000017  00000+0  00000+0 0  9990
2 28924   4.2441  76.4106 0006573  17.2535  15.8597  1.00274579 52434
ECHOSTAR 10             
1 28935U 06003A   26178.27215950 -.00000044  00000+0  00000+0 0  9998
2 28935   0.0184 339.6012 0002305  67.4401 216.1327  1.00271956 74563
SPAINSAT                
1 28945U 06007A   26177.32158614 -.00000206  00000+0  00000+0 0  9991
2 28945   0.5868  86.4036 0005113   6.7366 266.9137  1.00271612 74311
JCSAT-5A                
1 29045U 06010A   26178.04822016 -.00000317  00000+0  00000+0 0  9994
2 29045   1.1349  84.1318 0002245 359.9071 340.5357  1.00272026 73863
ASTRA 1KR               
1 29055U 06012A   26178.16844251  .00000130  00000+0  00000+0 0  9997
2 29055   0.4994  83.2517 0003833   3.6770 268.0089  1.00269535 45794
GALAXY 16 (G-16)        
1 29236U 06023A   26178.21629524 -.00000115  00000+0  00000+0 0  9994
2 29236   0.0432 123.6596 0002887 321.3815 169.1442  1.00272109 73079
EUTELSAT 33F            
1 29270U 06032A   26178.17121586  .00000166  00000+0  00000+0 0  9997
2 29270   1.6870  82.1474 0003772   9.9237 277.9270  1.00270314 47406
